UNKNOWN                 
1 81614U 76077    22295.55041264  .00003957  00000+0  28919-1 0  9997
2 81614 101.8580 325.8604 0398884  97.9014 266.7498 12.22648931396999
UNKNOWN                 
1 81615U 92021    22294.44746628  .00001476  00000+0  54057-3 0  9996
2 81615  65.8315 196.5233 0827183 302.9609  49.4492 13.24175982430289
UNKNOWN                 
1 81617U 73086    22295.51562612  .00000259  00000+0  18196-2 0  9997
2 81617 101.2927 144.8400 0045467 343.3445  16.6136 12.56358371408972
UNKNOWN                 
1 81624U          22295.31646998  .00002583  00000+0  61989-3 0  9990
2 81624  66.9914  44.6870 0085723 102.5556 258.5161 14.52831005472130
UNKNOWN                 
1 81626U          22295.39877247  .00107372  00000+0  11949-1 0  9994
2 81626  70.9969 276.9213 0018369 289.6360  70.2817 14.86358361460512
UNKNOWN                 
1 81640U          22295.32640812  .00000122  00000+0  16258-3 0  9994
2 81640  65.8249 314.6009 0992896 182.9994 176.4758 12.55629838365936
UNKNOWN                 
1 81652U 76077    22295.46974167  .00000794  00000+0  99782-3 0  9990
2 81652 102.1770 291.6531 0379229  38.0307 111.6614 13.41742116424642
UNKNOWN                 
1 81661U          22294.51342533  .00006668  00000+0  16965-2 0  9991
2 81661  98.4231 212.5977 0065297 110.1506 250.6727 14.49706414368148
UNKNOWN                 
1 81667U          22295.19068866  .00001287  00000+0  43050-3 0  9994
2 81667  74.0477   5.4376 0018871 234.5958 125.3434 14.38316426291153
UNKNOWN                 
1 81674U          22290.26428520  .00000987  00000+0  65160-3 0  9994
2 81674  66.8272  15.2887 0030003 325.9393  66.2779 14.05625361451516
UNKNOWN                 
1 81678U          22291.61648765  .00024179  00000+0  28131-2 0  9998
2 81678  65.8292 245.1360 0053777 293.2548 242.9050 14.84221656477073
UNKNOWN                 
1 81683U          22295.03998333  .00002260  00000+0  64187-3 0  9992
2 81683  81.2239  51.9589 0031358 169.9993 190.1828 14.44891432469486
UNKNOWN                 
1 81693U 73086    22295.46638179  .00000486  00000+0  38884-2 0  9995
2 81693 101.0875 109.7447 0365928  82.9271 281.3244 12.23498412827327
UNKNOWN                 
1 81696U          22295.53666918  .00009573  00000+0  83245-3 0  9992
2 81696  97.4476 202.0084 0199267 114.0658 248.1547 14.83046311342207
UNKNOWN                 
1 81721U          22293.11216659  .00039666  00000+0  72740-2 0  9999
2 81721  98.2240 343.3197 0277617 143.0656 219.0011 14.43642050368180
UNKNOWN                 
1 81732U          22295.11808203  .00015944  00000+0  16118-2 0  9995
2 81732  65.7333 182.6926 0227151 105.0496 257.5874 14.73858013474156
UNKNOWN                 
1 81745U          22294.48001005  .00001050  00000+0  41623-3 0  9996
2 81745  71.0068   0.2217 0007725 229.1677 144.9434 14.31141368464988
UNKNOWN                 
1 81749U          22294.46672899  .00000106  00000+0  48802-3 0  9990
2 81749  99.6758 110.4510 0370324 200.7541 187.5271 12.77036298415405
UNKNOWN                 
1 81775U          22294.83226730  .00002743  00000+0  12410-2 0  9993
2 81775  82.9264  78.3613 0024157 156.1667 204.0639 14.21579573461234
UNKNOWN                 
1 81779U          22295.45990395  .00007501  00000+0  25675+0 0  9992
2 81779  54.2731 100.8622 1842057 138.4886 237.1515  9.25949145373825
UNKNOWN                 
1 81792U          22295.28194492  .00001174  00000+0  48934-3 0  9999
2 81792  65.8255 139.9374 0905614  70.7811 298.8897 13.04840572425102
UNKNOWN                 
1 81794U          22295.08026691  .00019946  00000+0  21150-2 0  9990
2 81794  81.1861 222.1407 0008162  63.7270 296.4782 14.88969760478641
UNKNOWN                 
1 81798U          22294.53328092  .00014193  00000+0  28309-2 0  9995
2 81798  74.0140 130.1643 0043757 127.8651 232.6487 14.61378225419853
UNKNOWN                 
1 81812U          22295.32942365  .00000551  00000+0  45542-2 0  9996
2 81812 103.6465  71.9658 0278723  18.7551 342.3533 12.29292194399116
UNKNOWN                 
1 81813U          22272.45878442  .00002415  00000+0  69865-3 0  9996
2 81813  99.0716 128.0562 0019118   8.1585 351.9911 14.45410090465963
UNKNOWN                 
1 81816U 77121    22294.22415702  .00000111  00000+0  14734-3 0  9998
2 81816  66.2375 266.8418 0194127 197.6798 161.7455 13.84497587450083
UNKNOWN                 
1 81817U          22294.31950800  .00011125  00000+0  10444-2 0  9994
2 81817  65.7251 147.9179 0298307 248.6892 108.2134 14.66177468476500
UNKNOWN                 
1 81818U          22293.83007280  .00002763  00000+0  64281-3 0  9993
2 81818  65.7526 103.5805 0654538  84.6093 282.9236 13.72258324489721
UNKNOWN                 
1 81819U          22293.39301307  .00000562  00000+0  42283-2 0  9994
2 81819 102.2147 359.7516 0033668 106.3284 254.1488 12.45553246404795
UNKNOWN                 
1 81821U          22288.81192869  .00403499  11618-4  46166-2 0  9991
2 81821  34.0772 326.2875 1986388 280.6635  57.7622 11.58973144435476
UNKNOWN                 
1 81824U          22294.99708623  .00002015  00000+0  98705-3 0  9995
2 81824  65.8491 184.8107 0057799 242.9809 116.5369 14.19171225460899
UNKNOWN                 
1 81833U          22295.11004800  .00000216  00000+0  76210-3 0  9994
2 81833  90.2630 337.0417 0028456 143.7150 216.5905 12.93106120304163
UNKNOWN                 
1 81838U          22295.56214253  .00002068  00000+0  69269-3 0  9996
2 81838  67.7678 335.5449 0034058  25.6729 125.4202 14.38778922467403
UNKNOWN                 
1 81844U          22295.52190532  .00003110  00000+0  15166-2 0  9997
2 81844  82.9222 127.5770 0078174  21.0750 339.3620 14.16232102459650
UNKNOWN                 
1 81845U          22295.34922564  .00001185  00000+0  16464-3 0  9999
2 81845  97.7627 151.6364 0104741  87.5805  87.6339 14.75956253479803
UNKNOWN                 
1 81864U          22283.29964396  .00000898  00000+0  39150-3 0  9997
2 81864  65.6728 242.5587 0786439 153.7898 210.5274 13.26468415396733
UNKNOWN                 
1 81865U 87062    22295.17547882  .00001092  00000+0  96623-3 0  9993
2 81865  82.8101 190.5390 0071765  13.2061 138.9855 13.83066712449650
UNKNOWN                 
1 81872U          22295.43082787  .00092913  00000+0  53464-2 0  9992
2 81872  61.9947  83.0464 1644960 357.8260   1.6103 12.07117902210879
UNKNOWN                 
1 81873U          22294.93224930  .00002286  00000+0  12767-2 0  9990
2 81873  99.0898 339.7117 0072436  86.9463 273.9993 14.10520900407141
UNKNOWN                 
1 81877U          22290.65325053  .00000283  00000+0  46851-3 0  9994
2 81877  65.9338 255.8591 0074893 280.1884  79.0731 13.60654744971187
UNKNOWN                 
1 81893U 70025    22295.55983211  .00000761  00000+0  87695-3 0  9998
2 81893  99.9543 210.5696 0018982 347.3569  12.7098 13.72902189446467
UNKNOWN                 
1 81899U          22295.61881879  .00000584  00000+0  15484-2 0  9993
2 81899 102.4297 178.1050 0176576 106.6087 255.4489 13.16543217427827
UNKNOWN                 
1 81902U          22295.37379596  .00012401  00000+0  15556-2 0  9990
2 81902  81.6243 311.2241 0261805 198.9719 160.1591 14.60745370470603
UNKNOWN                 
1 81905U          22294.94135149  .00194095  00000+0  51020-2 0  9995
2 81905  61.6774 154.0897 0926243 195.2038 161.9334 13.74199631531992
UNKNOWN                 
1 81921U          22283.88376070  .00000846  00000+0  35976-3 0  9997
2 81921  65.7065 148.3340 0892134 246.3805 104.1157 13.07831230876592
UNKNOWN                 
1 81946U 87079    22293.49661154 -.00000100  00000+0 -15234-3 0  9993
2 81946  66.4195 201.6325 0674583 187.4070 348.9931 12.42021895405123
UNKNOWN                 
1 81947U          22294.12374785  .00004679  00000+0  55533-3 0  9994
2 81947  66.0822  82.2960 0445938 118.5305 246.1440 14.33613179465350
UNKNOWN                 
1 81964U          22295.49555333  .00000174  00000+0  18820-3 0  9998
2 81964  66.5853 224.9556 0031318 132.9428 227.4286 13.94600689454001
UNKNOWN                 
1 81969U          22295.42138695  .00002850  00000+0  31399-3 0  9993
2 81969  86.6631 283.2012 0009520 345.5316  14.5635 14.87166717268543
UNKNOWN                 
1 81995U          22295.13740160  .00002187  00000+0  53178-3 0  9998
2 81995  65.7548 194.7168 0584374 144.8083 219.3085 13.84008003444360
UNKNOWN                 
1 82039U          22294.10147245  .00007048  00000+0  14864-2 0  9998
2 82039  99.0698 341.2044 0038596 321.1088  38.7334 14.59308862389584
UNKNOWN                 
1 82043U          22295.46568391  .00001429  00000+0  46254-3 0  9998
2 82043  97.9537 174.9199 0257852 267.5203  89.6439 14.23275465410185
UNKNOWN                 
1 82044U          22294.95819907  .00001052  00000+0  11423-2 0  9995
2 82044  99.9244   6.9569 0062337 359.9723   0.1411 13.74674766404063
UNKNOWN                 
1 82051U          22286.45298438  .00002814  00000+0  12699-2 0  9992
2 82051  98.8154 352.5907 0115336  22.5948 338.0248 14.19475911407543
UNKNOWN                 
1 82073U          22295.28255269  .00002271  00000+0  69297-3 0  9996
2 82073  97.6880 116.9641 0240635 157.4980 203.6974 14.27359143410816
UNKNOWN                 
1 82112U          22294.52154370  .00007042  00000+0  18075-2 0  9995
2 82112  98.6542  42.1195 0097199 200.7918 158.9308 14.47750451415309
UNKNOWN                 
1 82139U          22290.83368170  .00001904  00000+0  11212-2 0  9996
2 82139  99.1117 332.0289 0092502  39.0030 321.7762 14.07065760317682
UNKNOWN                 
1 82162U          22295.04803502  .00001913  00000+0  33849-2 0  9993
2 82162 100.3687 153.1651 0046651 104.8607 255.7694 13.43566137349661
UNKNOWN                 
1 82168U          22294.13432779  .00034552  00000+0  37677-2 0  9990
2 82168  74.0076 247.8211 0014061 240.4163 119.5617 14.87722349319783
UNKNOWN                 
1 82180U          22291.71406578  .00006460  00000+0  14348-2 0  9990
2 82180  65.6605 184.3553 0454117  72.8305 292.1959 14.09133317437435
